[{"OBJECT_NAME":"ONEWEB-0383","OBJECT_ID":"2021-090AG","EPOCH":"2025-09-01T05:46:31.172448","MEAN_MOTION":13.1450307,"ECCENTRICITY":0.00019284,"INCLINATION":87.9094,"RA_OF_ASC_NODE":347.2034,"ARG_OF_PERICENTER":95.1733,"MEAN_ANOMALY":264.9617,"EPHEMERIS_TYPE":0,"CLASSIFICATION_TYPE":"U","NORAD_CAT_ID":49309,"ELEMENT_SET_NO":999,"REV_AT_EPOCH":18963,"BSTAR":-0.00048573141,"MEAN_MOTION_DOT":-1.67e-6,"MEAN_MOTION_DDOT":0},{"OBJECT_NAME":"ONEWEB-0384","OBJECT_ID":"2021-090AH","EPOCH":"2025-09-01T06:43:34.539168","MEAN_MOTION":13.20789451,"ECCENTRICITY":0.00024036,"INCLINATION":87.9306,"RA_OF_ASC_NODE":332.0427,"ARG_OF_PERICENTER":92.4241,"MEAN_ANOMALY":267.7167,"EPHEMERIS_TYPE":0,"CLASSIFICATION_TYPE":"U","NORAD_CAT_ID":49310,"ELEMENT_SET_NO":999,"REV_AT_EPOCH":19169,"BSTAR":0.0001409935,"MEAN_MOTION_DOT":7.0e-7,"MEAN_MOTION_DDOT":0},{"OBJECT_NAME":"ONEWEB-0385","OBJECT_ID":"2021-090AJ","EPOCH":"2025-09-01T06:39:07.161408","MEAN_MOTION":13.20772709,"ECCENTRICITY":0.00020557,"INCLINATION":87.9283,"RA_OF_ASC_NODE":332.0329,"ARG_OF_PERICENTER":97.8914,"MEAN_ANOMALY":262.2453,"EPHEMERIS_TYPE":0,"CLASSIFICATION_TYPE":"U","NORAD_CAT_ID":49311,"ELEMENT_SET_NO":999,"REV_AT_EPOCH":19166,"BSTAR":0.00019923727,"MEAN_MOTION_DOT":9.4e-7,"MEAN_MOTION_DDOT":0},{"OBJECT_NAME":"ONEWEB-0386","OBJECT_ID":"2021-090AK","EPOCH":"2025-09-01T07:04:06.577248","MEAN_MOTION":13.20772682,"ECCENTRICITY":0.0002142,"INCLINATION":87.9295,"RA_OF_ASC_NODE":332.0038,"ARG_OF_PERICENTER":93.6727,"MEAN_ANOMALY":266.4652,"EPHEMERIS_TYPE":0,"CLASSIFICATION_TYPE":"U","NORAD_CAT_ID":49312,"ELEMENT_SET_NO":999,"REV_AT_EPOCH":19168,"BSTAR":-2.022763e-6,"MEAN_MOTION_DOT":1.2e-7,"MEAN_MOTION_DDOT":0},{"OBJECT_NAME":"ONEWEB-0387","OBJECT_ID":"2021-090AL","EPOCH":"2025-09-01T06:41:21.828768","MEAN_MOTION":13.20774237,"ECCENTRICITY":0.0002215,"INCLINATION":87.9284,"RA_OF_ASC_NODE":332.0617,"ARG_OF_PERICENTER":103.8992,"MEAN_ANOMALY":256.2388,"EPHEMERIS_TYPE":0,"CLASSIFICATION_TYPE":"U","NORAD_CAT_ID":49313,"ELEMENT_SET_NO":999,"REV_AT_EPOCH":19168,"BSTAR":6.4928834e-5,"MEAN_MOTION_DOT":3.9e-7,"MEAN_MOTION_DDOT":0},{"OBJECT_NAME":"ONEWEB-0388","OBJECT_ID":"2021-090AM","EPOCH":"2025-09-01T05:49:20.627904","MEAN_MOTION":13.19725659,"ECCENTRICITY":0.00018997,"INCLINATION":87.9273,"RA_OF_ASC_NODE":2.4299,"ARG_OF_PERICENTER":95.7562,"MEAN_ANOMALY":264.3787,"EPHEMERIS_TYPE":0,"CLASSIFICATION_TYPE":"U","NORAD_CAT_ID":49314,"ELEMENT_SET_NO":999,"REV_AT_EPOCH":18830,"BSTAR":0.00016617888,"MEAN_MOTION_DOT":7.9e-7,"MEAN_MOTION_DDOT":0},{"OBJECT_NAME":"ONEWEB-0389","OBJECT_ID":"2021-132A","EPOCH":"2025-09-01T06:16:42.493152","MEAN_MOTION":13.17649443,"ECCENTRICITY":0.00020965,"INCLINATION":87.9036,"RA_OF_ASC_NODE":63.3508,"ARG_OF_PERICENTER":94.6651,"MEAN_ANOMALY":265.472,"EPHEMERIS_TYPE":0,"CLASSIFICATION_TYPE":"U","NORAD_CAT_ID":50469,"ELEMENT_SET_NO":999,"REV_AT_EPOCH":18003,"BSTAR":3.510293e-6,"MEAN_MOTION_DOT":1.4e-7,"MEAN_MOTION_DDOT":0},{"OBJECT_NAME":"ONEWEB-0390","OBJECT_ID":"2021-132B","EPOCH":"2025-09-01T00:51:04.418784","MEAN_MOTION":13.17647871,"ECCENTRICITY":0.00015985,"INCLINATION":87.9036,"RA_OF_ASC_NODE":63.4021,"ARG_OF_PERICENTER":98.6089,"MEAN_ANOMALY":261.5223,"EPHEMERIS_TYPE":0,"CLASSIFICATION_TYPE":"U","NORAD_CAT_ID":50470,"ELEMENT_SET_NO":999,"REV_AT_EPOCH":18000,"BSTAR":0.0001911111,"MEAN_MOTION_DOT":8.7e-7,"MEAN_MOTION_DDOT":0},{"OBJECT_NAME":"ONEWEB-0391","OBJECT_ID":"2021-132C","EPOCH":"2025-09-01T06:21:33.161760","MEAN_MOTION":13.17650134,"ECCENTRICITY":0.00023895,"INCLINATION":87.903,"RA_OF_ASC_NODE":63.3698,"ARG_OF_PERICENTER":106.6109,"MEAN_ANOMALY":253.5285,"EPHEMERIS_TYPE":0,"CLASSIFICATION_TYPE":"U","NORAD_CAT_ID":50471,"ELEMENT_SET_NO":999,"REV_AT_EPOCH":18003,"BSTAR":6.5534884e-5,"MEAN_MOTION_DOT":3.8e-7,"MEAN_MOTION_DDOT":0},{"OBJECT_NAME":"ONEWEB-0392","OBJECT_ID":"2021-132D","EPOCH":"2025-09-01T05:15:56.624832","MEAN_MOTION":13.17650091,"ECCENTRICITY":0.00021154,"INCLINATION":87.9036,"RA_OF_ASC_NODE":63.3235,"ARG_OF_PERICENTER":96.7465,"MEAN_ANOMALY":263.3907,"EPHEMERIS_TYPE":0,"CLASSIFICATION_TYPE":"U","NORAD_CAT_ID":50472,"ELEMENT_SET_NO":999,"REV_AT_EPOCH":18006,"BSTAR":0.00027342625,"MEAN_MOTION_DOT":1.19e-6,"MEAN_MOTION_DDOT":0},{"OBJECT_NAME":"ONEWEB-0393","OBJECT_ID":"2021-132E","EPOCH":"2025-09-01T04:37:11.915328","MEAN_MOTION":13.17646463,"ECCENTRICITY":0.0001883,"INCLINATION":87.9036,"RA_OF_ASC_NODE":63.3485,"ARG_OF_PERICENTER":92.8069,"MEAN_ANOMALY":267.3278,"EPHEMERIS_TYPE":0,"CLASSIFICATION_TYPE":"U","NORAD_CAT_ID":50473,"ELEMENT_SET_NO":999,"REV_AT_EPOCH":18005,"BSTAR":0.00017207968,"MEAN_MOTION_DOT":8.0e-7,"MEAN_MOTION_DDOT":0},{"OBJECT_NAME":"ONEWEB-0394","OBJECT_ID":"2021-132F","EPOCH":"2025-09-01T03:50:34.472544","MEAN_MOTION":13.18686522,"ECCENTRICITY":0.00019271,"INCLINATION":87.9165,"RA_OF_ASC_NODE":32.8332,"ARG_OF_PERICENTER":95.2609,"MEAN_ANOMALY":264.8743,"EPHEMERIS_TYPE":0,"CLASSIFICATION_TYPE":"U","NORAD_CAT_ID":50474,"ELEMENT_SET_NO":999,"REV_AT_EPOCH":18350,"BSTAR":8.3470776e-5,"MEAN_MOTION_DOT":4.6e-7,"MEAN_MOTION_DDOT":0},{"OBJECT_NAME":"ONEWEB-0395","OBJECT_ID":"2021-132G","EPOCH":"2025-09-01T05:32:53.759328","MEAN_MOTION":13.11416298,"ECCENTRICITY":0.00017515,"INCLINATION":87.877,"RA_OF_ASC_NODE":78.6577,"ARG_OF_PERICENTER":96.8376,"MEAN_ANOMALY":263.2951,"EPHEMERIS_TYPE":0,"CLASSIFICATION_TYPE":"U","NORAD_CAT_ID":50475,"ELEMENT_SET_NO":999,"REV_AT_EPOCH":17784,"BSTAR":0.0014315272,"MEAN_MOTION_DOT":5.2e-6,"MEAN_MOTION_DDOT":0},{"OBJECT_NAME":"ONEWEB-0396","OBJECT_ID":"2021-132H","EPOCH":"2025-08-31T22:13:17.213952","MEAN_MOTION":13.18686097,"ECCENTRICITY":0.00018536,"INCLINATION":87.9166,"RA_OF_ASC_NODE":32.892,"ARG_OF_PERICENTER":95.4598,"MEAN_ANOMALY":264.6745,"EPHEMERIS_TYPE":0,"CLASSIFICATION_TYPE":"U","NORAD_CAT_ID":50476,"ELEMENT_SET_NO":999,"REV_AT_EPOCH":18351,"BSTAR":6.7241032e-5,"MEAN_MOTION_DOT":3.9e-7,"MEAN_MOTION_DDOT":0},{"OBJECT_NAME":"ONEWEB-0397","OBJECT_ID":"2021-132J","EPOCH":"2025-09-01T04:02:26.333376","MEAN_MOTION":13.18684501,"ECCENTRICITY":0.00018927,"INCLINATION":87.9166,"RA_OF_ASC_NODE":32.8448,"ARG_OF_PERICENTER":90.4035,"MEAN_ANOMALY":269.7314,"EPHEMERIS_TYPE":0,"CLASSIFICATION_TYPE":"U","NORAD_CAT_ID":50477,"ELEMENT_SET_NO":999,"REV_AT_EPOCH":18352,"BSTAR":2.8670839e-5,"MEAN_MOTION_DOT":2.4e-7,"MEAN_MOTION_DDOT":0},{"OBJECT_NAME":"ONEWEB-0398","OBJECT_ID":"2021-132K","EPOCH":"2025-09-01T06:36:21.914496","MEAN_MOTION":13.114188,"ECCENTRICITY":0.00014242,"INCLINATION":87.8783,"RA_OF_ASC_NODE":78.6136,"ARG_OF_PERICENTER":99.8452,"MEAN_ANOMALY":260.2837,"EPHEMERIS_TYPE":0,"CLASSIFICATION_TYPE":"U","NORAD_CAT_ID":50478,"ELEMENT_SET_NO":999,"REV_AT_EPOCH":17774,"BSTAR":-0.00051764783,"MEAN_MOTION_DOT":-1.71e-6,"MEAN_MOTION_DDOT":0},{"OBJECT_NAME":"ONEWEB-0399","OBJECT_ID":"2021-132L","EPOCH":"2025-09-01T06:16:50.972448","MEAN_MOTION":13.11408297,"ECCENTRICITY":0.00022209,"INCLINATION":87.8771,"RA_OF_ASC_NODE":78.6387,"ARG_OF_PERICENTER":88.5047,"MEAN_ANOMALY":271.6335,"EPHEMERIS_TYPE":0,"CLASSIFICATION_TYPE":"U","NORAD_CAT_ID":50479,"ELEMENT_SET_NO":999,"REV_AT_EPOCH":17773,"BSTAR":-0.0016131307,"MEAN_MOTION_DOT":-5.59e-6,"MEAN_MOTION_DDOT":0}]
