ONEWEB-0383             
1 49309U 21090AG  25244.24063857 -.00000167  00000+0 -48573-3 0  9994
2 49309  87.9094 347.2034 0001928  95.1733 264.9617 13.14503070189631
ONEWEB-0384             
1 49310U 21090AH  25244.28026087  .00000070  00000+0  14099-3 0  9991
2 49310  87.9306 332.0427 0002403  92.4241 267.7167 13.20789451191696
ONEWEB-0385             
1 49311U 21090AJ  25244.27716622  .00000094  00000+0  19924-3 0  9990
2 49311  87.9283 332.0329 0002055  97.8914 262.2453 13.20772709191664
ONEWEB-0386             
1 49312U 21090AK  25244.29452057  .00000012  00000+0 -20228-5 0  9994
2 49312  87.9295 332.0038 0002142  93.6727 266.4652 13.20772682191687
ONEWEB-0387             
1 49313U 21090AL  25244.27872487  .00000039  00000+0  64929-4 0  9999
2 49313  87.9284 332.0617 0002215 103.8992 256.2388 13.20774237191689
ONEWEB-0388             
1 49314U 21090AM  25244.24259986  .00000079  00000+0  16618-3 0  9995
2 49314  87.9273   2.4299 0001899  95.7562 264.3787 13.19725659188301
ONEWEB-0389             
1 50469U 21132A   25244.26160293  .00000014  00000+0  35103-5 0  9990
2 50469  87.9036  63.3508 0002096  94.6651 265.4720 13.17649443180032
ONEWEB-0390             
1 50470U 21132B   25244.03546781  .00000087  00000+0  19111-3 0  9996
2 50470  87.9036  63.4021 0001598  98.6089 261.5223 13.17647871180005
ONEWEB-0391             
1 50471U 21132C   25244.26496715  .00000038  00000+0  65535-4 0  9991
2 50471  87.9030  63.3698 0002389 106.6109 253.5285 13.17650134180039
ONEWEB-0392             
1 50472U 21132D   25244.21940538  .00000119  00000+0  27343-3 0  9998
2 50472  87.9036  63.3235 0002115  96.7465 263.3907 13.17650091180069
ONEWEB-0393             
1 50473U 21132E   25244.19249902  .00000080  00000+0  17208-3 0  9999
2 50473  87.9036  63.3485 0001883  92.8069 267.3278 13.17646463180057
ONEWEB-0394             
1 50474U 21132F   25244.16012121  .00000046  00000+0  83471-4 0  9996
2 50474  87.9165  32.8332 0001927  95.2609 264.8743 13.18686522183502
ONEWEB-0395             
1 50475U 21132G   25244.23117777  .00000520  00000+0  14315-2 0  9994
2 50475  87.8770  78.6577 0001751  96.8376 263.2951 13.11416298177844
ONEWEB-0396             
1 50476U 21132H   25243.92589368  .00000039  00000+0  67241-4 0  9992
2 50476  87.9166  32.8920 0001853  95.4598 264.6745 13.18686097183513
ONEWEB-0397             
1 50477U 21132J   25244.16836034  .00000024  00000+0  28671-4 0  9993
2 50477  87.9166  32.8448 0001892  90.4035 269.7314 13.18684501183520
ONEWEB-0398             
1 50478U 21132K   25244.27525364 -.00000171  00000+0 -51765-3 0  9991
2 50478  87.8783  78.6136 0001424  99.8452 260.2837 13.11418800177747
ONEWEB-0399             
1 50479U 21132L   25244.26170107 -.00000559  00000+0 -16131-2 0  9999
2 50479  87.8771  78.6387 0002220  88.5047 271.6335 13.11408297177730
